FENGYUN 1C DEB          
1 30153U 99025TJ  17345.65253705  .00000246  00000-0  27221-3 0  9999
2 30153 100.4607  19.6248 0210425 190.1710 292.9077 13.73695840546103
